STARLINK-1271
1 25217C 20012AR  21325.11085662  .00008910  00000-0  59683-3 0  3251
2 25217  53.0534 232.7351 0001955  73.5474  69.2279 15.06396612    19
